CCSDS_OEM_VERS = 1.0
CREATION_DATE  = 2017-05-11T11:31:21
ORIGINATOR     = GMAT USER

META_START
OBJECT_NAME          = MOPSSat_alt_35785_km_RAAN_180_022
OBJECT_ID            = SatId
CENTER_NAME          = Earth
REF_FRAME            = EME2000
TIME_SYSTEM          = UTC
START_TIME           = 2017-01-01T00:00:00.000
USEABLE_START_TIME   = 2017-01-01T00:00:00.000
USEABLE_STOP_TIME    = 2017-01-02T00:00:00.000
STOP_TIME            = 2017-01-02T00:00:00.000
INTERPOLATION        = Lagrange
INTERPOLATION_DEGREE = 7 
META_STOP


                                                                                   

2017-01-01T03:49:10.000  -2.268540525255426e+04  -3.553845192519171e+04   3.102114794465741e+02   2.591835854650362e+00  -1.654132490319414e+00   1.443556124924823e-02
2017-01-01T03:49:20.000  -2.265948086332754e+04  -3.555498379889575e+04   3.103557524672673e+02   2.593041664909667e+00  -1.652242042691526e+00   1.441904107090994e-02
2017-01-01T03:49:30.000  -2.263354442312233e+04  -3.557149676358208e+04   3.104998602463930e+02   2.594246096300120e+00  -1.650350716205145e+00   1.440251319260905e-02
2017-01-01T03:49:40.000  -2.260759594599828e+04  -3.558799081029669e+04   3.106438027055084e+02   2.595449148168487e+00  -1.648458511885345e+00   1.438597762330756e-02
2017-01-01T03:49:50.000  -2.258163544548818e+04  -3.560446593043505e+04   3.107875797692201e+02   2.596650819887018e+00  -1.646565430718779e+00   1.436943437163174e-02
2017-01-01T03:50:00.000  -2.255566293519301e+04  -3.562092211536312e+04   3.109311913618778e+02   2.597851110825817e+00  -1.644671473697074e+00   1.435288344625137e-02
2017-01-01T03:50:10.000  -2.252967842864738e+04  -3.563735935650369e+04   3.110746374083269e+02   2.599050020359126e+00  -1.642776641807017e+00   1.433632485579391e-02
2017-01-01T03:50:20.000  -2.250368193965436e+04  -3.565377764512078e+04   3.112179178320275e+02   2.600247547849615e+00  -1.640880936054972e+00   1.431975860905800e-02
2017-01-01T03:50:30.000  -2.247767348203732e+04  -3.567017697248044e+04   3.113610325564578e+02   2.601443692660088e+00  -1.638984357448783e+00   1.430318471485517e-02
2017-01-01T03:50:40.000  -2.245165306963928e+04  -3.568655732984967e+04   3.115039815051042e+02   2.602638454153428e+00  -1.637086906997729e+00   1.428660318200956e-02
2017-01-01T03:50:50.000  -2.242562071657465e+04  -3.570291870834143e+04   3.116467646001092e+02   2.603831831681282e+00  -1.635188585730879e+00   1.427001401951827e-02
2017-01-01T03:51:00.000  -2.239957643689077e+04  -3.571926109912447e+04   3.117893817641022e+02   2.605023824599360e+00  -1.633289394672409e+00   1.425341723633564e-02
2017-01-01T03:51:10.000  -2.237352024470103e+04  -3.573558449334031e+04   3.119318329194753e+02   2.606214432261390e+00  -1.631389334851312e+00   1.423681284145815e-02
2017-01-01T03:51:20.000  -2.234745215359688e+04  -3.575188888247179e+04   3.120741179915988e+02   2.607403654045991e+00  -1.629488407258527e+00   1.422020084354975e-02
2017-01-01T03:51:30.000  -2.232137217723575e+04  -3.576817425797431e+04   3.122162369056045e+02   2.608591489329781e+00  -1.627586612889796e+00   1.420358125131641e-02
2017-01-01T03:51:40.000  -2.229528032920824e+04  -3.578444061135964e+04   3.123581895871159e+02   2.609777937493492e+00  -1.625683952735994e+00   1.418695407342158e-02
2017-01-01T03:51:50.000  -2.226917662337452e+04  -3.580068793398257e+04   3.124999759603866e+02   2.610962997906402e+00  -1.623780427807649e+00   1.417031931870048e-02
2017-01-01T03:52:00.000  -2.224306107361498e+04  -3.581691621720003e+04   3.126415959496895e+02   2.612146669937947e+00  -1.621876039116769e+00   1.415367699600127e-02
2017-01-01T03:52:10.000  -2.221693369382968e+04  -3.583312545237003e+04   3.127830494793068e+02   2.613328952957642e+00  -1.619970787676794e+00   1.413702711418467e-02
2017-01-01T03:52:20.000  -2.219079449819111e+04  -3.584931563069840e+04   3.129243364721925e+02   2.614509846323893e+00  -1.618064674521027e+00   1.412036968228503e-02
2017-01-01T03:52:30.000  -2.216464350080427e+04  -3.586548674344622e+04   3.130654568517836e+02   2.615689349399147e+00  -1.616157700677857e+00   1.410370470929371e-02
2017-01-01T03:52:40.000  -2.213848071584039e+04  -3.588163878184780e+04   3.132064105412833e+02   2.616867461543893e+00  -1.614249867180499e+00   1.408703220424433e-02
2017-01-01T03:52:50.000  -2.211230615694659e+04  -3.589777173747532e+04   3.133471974668435e+02   2.618044182143264e+00  -1.612341175023947e+00   1.407035217583654e-02
2017-01-01T03:53:00.000  -2.208611983783609e+04  -3.591388560187402e+04   3.134878175543811e+02   2.619219510580423e+00  -1.610431625208020e+00   1.405366463281213e-02
2017-01-01T03:53:10.000  -2.205992177215496e+04  -3.592998036664501e+04   3.136282707303009e+02   2.620393446242614e+00  -1.608521218727637e+00   1.403696958387014e-02
2017-01-01T03:53:20.000  -2.203371197381977e+04  -3.594605602323425e+04   3.137685569196534e+02   2.621565988505759e+00  -1.606609956597448e+00   1.402026703788199e-02
2017-01-01T03:53:30.000  -2.200749045676744e+04  -3.596211256308991e+04   3.139086760475091e+02   2.622737136745940e+00  -1.604697839833578e+00   1.400355700373212e-02
2017-01-01T03:53:40.000  -2.198125723495443e+04  -3.597814997766141e+04   3.140486280389496e+02   2.623906890339336e+00  -1.602784869453586e+00   1.398683949031743e-02
2017-01-01T03:53:50.000  -2.195501232261066e+04  -3.599416825824772e+04   3.141884128177438e+02   2.625075248651150e+00  -1.600871046494971e+00   1.397011450670916e-02
2017-01-01T03:54:00.000  -2.192875573389823e+04  -3.601016739620271e+04   3.143280303081392e+02   2.626242211050581e+00  -1.598956371990280e+00   1.395338206193529e-02
2017-01-01T03:54:10.000  -2.190248748304818e+04  -3.602614738285232e+04   3.144674804341408e+02   2.627407776904801e+00  -1.597040846977096e+00   1.393664216506785e-02
2017-01-01T03:54:20.000  -2.187620758375781e+04  -3.604210820986140e+04   3.146067631227099e+02   2.628571945605691e+00  -1.595124472454077e+00   1.391989482483867e-02
2017-01-01T03:54:30.000  -2.184991604979477e+04  -3.605804986886575e+04   3.147458783005559e+02   2.629734716543023e+00  -1.593207249425013e+00   1.390314005002451e-02
2017-01-01T03:54:40.000  -2.182361289484126e+04  -3.607397235156745e+04   3.148848258949660e+02   2.630896089111392e+00  -1.591289178887460e+00   1.388637784934765e-02
2017-01-01T03:54:50.000  -2.179729813291263e+04  -3.608987564947829e+04   3.150236058315669e+02   2.632056062691522e+00  -1.589370261863274e+00   1.386960823174277e-02
2017-01-01T03:55:00.000  -2.177097177801222e+04  -3.610575975413180e+04   3.151622180361754e+02   2.633214636665717e+00  -1.587450499373426e+00   1.385283120613684e-02
2017-01-01T03:55:10.000  -2.174463384420814e+04  -3.612162465703583e+04   3.153006624343847e+02   2.634371810414410e+00  -1.585529892443622e+00   1.383604678149823e-02
2017-01-01T03:55:20.000  -2.171828434561334e+04  -3.613747034968672e+04   3.154389389516873e+02   2.635527583317189e+00  -1.583608442102830e+00   1.381925496682384e-02
2017-01-01T03:55:30.000  -2.169192329635847e+04  -3.615329682358387e+04   3.155770475136023e+02   2.636681954753872e+00  -1.581686149381312e+00   1.380245577112191e-02
2017-01-01T03:55:40.000  -2.166555071058258e+04  -3.616910407023565e+04   3.157149880457285e+02   2.637834924104927e+00  -1.579763015309942e+00   1.378564920340602e-02
2017-01-01T03:55:50.000  -2.163916660233912e+04  -3.618489208121664e+04   3.158527604742409e+02   2.638986490755647e+00  -1.577839040913353e+00   1.376883527263532e-02
2017-01-01T03:56:00.000  -2.161277098565832e+04  -3.620066084812898e+04   3.159903647255567e+02   2.640136654093341e+00  -1.575914227214487e+00   1.375201398775410e-02
2017-01-01T03:56:10.000  -2.158636387454737e+04  -3.621641036260263e+04   3.161278007263354e+02   2.641285413507344e+00  -1.573988575234600e+00   1.373518535769204e-02
2017-01-01T03:56:20.000  -2.155994528292690e+04  -3.623214061633231e+04   3.162650684038018e+02   2.642432768391715e+00  -1.572062085988643e+00   1.371834939132370e-02
2017-01-01T03:56:30.000  -2.153351522472582e+04  -3.624785160102154e+04   3.164021676852574e+02   2.643578718141148e+00  -1.570134760492168e+00   1.370150609752888e-02
2017-01-01T03:56:40.000  -2.150707371389090e+04  -3.626354330837721e+04   3.165390984980339e+02   2.644723262150592e+00  -1.568206599762030e+00   1.368465548519884e-02
2017-01-01T03:56:50.000  -2.148062076441239e+04  -3.627921573009276e+04   3.166758607693454e+02   2.645866399814007e+00  -1.566277604818253e+00   1.366779756325257e-02
2017-01-01T03:57:00.000  -2.145415639034600e+04  -3.629486885783710e+04   3.168124544261923e+02   2.647008130523566e+00  -1.564347776685640e+00   1.365093234065081e-02
2017-01-01T03:57:10.000  -2.142768060573473e+04  -3.631050268330004e+04   3.169488793957573e+02   2.648148453672967e+00  -1.562417116388064e+00   1.363405982634624e-02
2017-01-01T03:57:20.000  -2.140119342495886e+04  -3.632611719798821e+04   3.170851356036251e+02   2.649287368642546e+00  -1.560485624973992e+00   1.361718002950647e-02
2017-01-01T03:57:30.000  -2.137469486231203e+04  -3.634171239347284e+04   3.172212229759443e+02   2.650424874817348e+00  -1.558553303485577e+00   1.360029295924396e-02
2017-01-01T03:57:40.000  -2.134818493215881e+04  -3.635728826129739e+04   3.173571414386210e+02   2.651560971580394e+00  -1.556620152970141e+00   1.358339862471634e-02
2017-01-01T03:57:50.000  -2.132166364832488e+04  -3.637284479333605e+04   3.174928909204481e+02   2.652695658338829e+00  -1.554686174435713e+00   1.356649703473796e-02
2017-01-01T03:58:00.000  -2.129513102470528e+04  -3.638838198143602e+04   3.176284713499824e+02   2.653828934497820e+00  -1.552751368895377e+00   1.354958819816729e-02
2017-01-01T03:58:10.000  -2.126858707512658e+04  -3.640389981749887e+04   3.177638826562559e+02   2.654960799466513e+00  -1.550815737357228e+00   1.353267212381926e-02
